{"fetched_at":"2026-07-11T09:23:59.140Z","source":"https://celestrak.org/NORAD/elements/gp.php?GROUP=planet&FORMAT=JSON","constellation":"superdove","records":[{"OBJECT_NAME":"FLOCK 4G-17","OBJECT_ID":"2025-009CA","EPOCH":"2026-07-10T00:38:55.535424","CLASSIFICATION_TYPE":"U","MEAN_MOTION":15.30011854,"ECCENTRICITY":0.00035906,"INCLINATION":97.3921,"RA_OF_ASC_NODE":272.2791,"ARG_OF_PERICENTER":236.2552,"MEAN_ANOMALY":123.8346,"EPHEMERIS_TYPE":0,"NORAD_CAT_ID":62681,"ELEMENT_SET_NO":999,"REV_AT_EPOCH":14004,"BSTAR":0.00026550744,"MEAN_MOTION_DOT":0.00007639,"MEAN_MOTION_DDOT":0},{"OBJECT_NAME":"FLOCK 4G-33","OBJECT_ID":"2025-009CE","EPOCH":"2026-07-08T18:17:02.137056","CLASSIFICATION_TYPE":"U","MEAN_MOTION":15.25750709,"ECCENTRICITY":0.00041326,"INCLINATION":97.394,"RA_OF_ASC_NODE":269.3877,"ARG_OF_PERICENTER":242.8969,"MEAN_ANOMALY":117.1848,"EPHEMERIS_TYPE":0,"NORAD_CAT_ID":62685,"ELEMENT_SET_NO":999,"REV_AT_EPOCH":8209,"BSTAR":0.00017229709,"MEAN_MOTION_DOT":0.00004325,"MEAN_MOTION_DDOT":0},{"OBJECT_NAME":"FLOCK 4H-1","OBJECT_ID":"2025-276AQ","EPOCH":"2026-07-11T00:01:14.081088","CLASSIFICATION_TYPE":"U","MEAN_MOTION":15.20819395,"ECCENTRICITY":0.0001616,"INCLINATION":97.4173,"RA_OF_ASC_NODE":265.3124,"ARG_OF_PERICENTER":186.3385,"MEAN_ANOMALY":173.783,"EPHEMERIS_TYPE":0,"NORAD_CAT_ID":66704,"ELEMENT_SET_NO":999,"REV_AT_EPOCH":3405,"BSTAR":0.00018164,"MEAN_MOTION_DOT":0.00003938,"MEAN_MOTION_DDOT":0},{"OBJECT_NAME":"FLOCK 4H-2","OBJECT_ID":"2025-276AR","EPOCH":"2026-07-11T04:08:37.303008","CLASSIFICATION_TYPE":"U","MEAN_MOTION":15.21090629,"ECCENTRICITY":0.0001143,"INCLINATION":97.417,"RA_OF_ASC_NODE":265.5286,"ARG_OF_PERICENTER":158.7856,"MEAN_ANOMALY":201.3428,"EPHEMERIS_TYPE":0,"NORAD_CAT_ID":66705,"ELEMENT_SET_NO":999,"REV_AT_EPOCH":3408,"BSTAR":0.00017958,"MEAN_MOTION_DOT":0.00003923,"MEAN_MOTION_DDOT":0},{"OBJECT_NAME":"FLOCK 4H-3","OBJECT_ID":"2025-276AS","EPOCH":"2026-07-11T03:50:55.154976","CLASSIFICATION_TYPE":"U","MEAN_MOTION":15.20211864,"ECCENTRICITY":0.0002339,"INCLINATION":97.424,"RA_OF_ASC_NODE":265.4428,"ARG_OF_PERICENTER":272.4577,"MEAN_ANOMALY":87.639,"EPHEMERIS_TYPE":0,"NORAD_CAT_ID":66706,"ELEMENT_SET_NO":999,"REV_AT_EPOCH":3406,"BSTAR":0.00018654,"MEAN_MOTION_DOT":0.00003974,"MEAN_MOTION_DDOT":0},{"OBJECT_NAME":"FLOCK 4H-4","OBJECT_ID":"2025-276AT","EPOCH":"2026-07-10T03:25:18.332256","CLASSIFICATION_TYPE":"U","MEAN_MOTION":15.19995967,"ECCENTRICITY":0.0003034,"INCLINATION":97.4219,"RA_OF_ASC_NODE":264.3108,"ARG_OF_PERICENTER":281.5816,"MEAN_ANOMALY":78.5078,"EPHEMERIS_TYPE":0,"NORAD_CAT_ID":66707,"ELEMENT_SET_NO":999,"REV_AT_EPOCH":3390,"BSTAR":0.00024962794,"MEAN_MOTION_DOT":0.00005308,"MEAN_MOTION_DDOT":0},{"OBJECT_NAME":"FLOCK 4H-5","OBJECT_ID":"2025-276AU","EPOCH":"2026-07-10T23:50:18.008736","CLASSIFICATION_TYPE":"U","MEAN_MOTION":15.20871863,"ECCENTRICITY":0.0001043,"INCLINATION":97.4174,"RA_OF_ASC_NODE":265.3259,"ARG_OF_PERICENTER":130.5806,"MEAN_ANOMALY":229.5521,"EPHEMERIS_TYPE":0,"NORAD_CAT_ID":66708,"ELEMENT_SET_NO":999,"REV_AT_EPOCH":3405,"BSTAR":0.00015943,"MEAN_MOTION_DOT":0.00003453,"MEAN_MOTION_DDOT":0},{"OBJECT_NAME":"FLOCK 4H-6","OBJECT_ID":"2025-276AV","EPOCH":"2026-07-10T12:17:12.797952","CLASSIFICATION_TYPE":"U","MEAN_MOTION":15.20567793,"ECCENTRICITY":0.0001994,"INCLINATION":97.4223,"RA_OF_ASC_NODE":264.8943,"ARG_OF_PERICENTER":227.6526,"MEAN_ANOMALY":132.4541,"EPHEMERIS_TYPE":0,"NORAD_CAT_ID":66709,"ELEMENT_SET_NO":999,"REV_AT_EPOCH":3397,"BSTAR":0.00018358,"MEAN_MOTION_DOT":0.00003951,"MEAN_MOTION_DDOT":0},{"OBJECT_NAME":"FLOCK 4H-7","OBJECT_ID":"2025-276AW","EPOCH":"2026-07-11T03:37:44.918112","CLASSIFICATION_TYPE":"U","MEAN_MOTION":15.20346675,"ECCENTRICITY":0.0000895,"INCLINATION":97.4182,"RA_OF_ASC_NODE":265.2847,"ARG_OF_PERICENTER":339.7678,"MEAN_ANOMALY":20.3521,"EPHEMERIS_TYPE":0,"NORAD_CAT_ID":66710,"ELEMENT_SET_NO":999,"REV_AT_EPOCH":3406,"BSTAR":0.00020682,"MEAN_MOTION_DOT":0.00004431,"MEAN_MOTION_DDOT":0},{"OBJECT_NAME":"FLOCK 4H-8","OBJECT_ID":"2025-276AX","EPOCH":"2026-07-11T03:25:02.819136","CLASSIFICATION_TYPE":"U","MEAN_MOTION":15.2045516,"ECCENTRICITY":0.0001901,"INCLINATION":97.4222,"RA_OF_ASC_NODE":265.423,"ARG_OF_PERICENTER":296.4674,"MEAN_ANOMALY":63.6366,"EPHEMERIS_TYPE":0,"NORAD_CAT_ID":66711,"ELEMENT_SET_NO":999,"REV_AT_EPOCH":3406,"BSTAR":0.00020215,"MEAN_MOTION_DOT":0.00004343,"MEAN_MOTION_DDOT":0},{"OBJECT_NAME":"FLOCK 4H-9","OBJECT_ID":"2025-276AY","EPOCH":"2026-07-11T03:46:04.493280","CLASSIFICATION_TYPE":"U","MEAN_MOTION":15.20753068,"ECCENTRICITY":0.0002068,"INCLINATION":97.4212,"RA_OF_ASC_NODE":265.5308,"ARG_OF_PERICENTER":233.3101,"MEAN_ANOMALY":126.7945,"EPHEMERIS_TYPE":0,"NORAD_CAT_ID":66712,"ELEMENT_SET_NO":999,"REV_AT_EPOCH":3407,"BSTAR":0.00019628,"MEAN_MOTION_DOT":0.00004252,"MEAN_MOTION_DDOT":0},{"OBJECT_NAME":"FLOCK 4H-10","OBJECT_ID":"2025-276AZ","EPOCH":"2026-07-08T17:52:23.250720","CLASSIFICATION_TYPE":"U","MEAN_MOTION":15.20108727,"ECCENTRICITY":0.0002903,"INCLINATION":97.4183,"RA_OF_ASC_NODE":262.8729,"ARG_OF_PERICENTER":290.7514,"MEAN_ANOMALY":69.341,"EPHEMERIS_TYPE":0,"NORAD_CAT_ID":66713,"ELEMENT_SET_NO":999,"REV_AT_EPOCH":3369,"BSTAR":0.00024119162,"MEAN_MOTION_DOT":0.00005144,"MEAN_MOTION_DDOT":0},{"OBJECT_NAME":"FLOCK 4H-11","OBJECT_ID":"2025-276BA","EPOCH":"2026-07-11T03:33:04.705632","CLASSIFICATION_TYPE":"U","MEAN_MOTION":15.23260238,"ECCENTRICITY":0.0001297,"INCLINATION":97.4195,"RA_OF_ASC_NODE":265.8104,"ARG_OF_PERICENTER":271.8491,"MEAN_ANOMALY":88.2597,"EPHEMERIS_TYPE":0,"NORAD_CAT_ID":66714,"ELEMENT_SET_NO":999,"REV_AT_EPOCH":3409,"BSTAR":0.00037123,"MEAN_MOTION_DOT":0.0000873,"MEAN_MOTION_DDOT":0},{"OBJECT_NAME":"FLOCK 4H-12","OBJECT_ID":"2025-276BB","EPOCH":"2026-07-11T03:27:31.979232","CLASSIFICATION_TYPE":"U","MEAN_MOTION":15.20782568,"ECCENTRICITY":0.0001457,"INCLINATION":97.4188,"RA_OF_ASC_NODE":265.4551,"ARG_OF_PERICENTER":191.7622,"MEAN_ANOMALY":168.358,"EPHEMERIS_TYPE":0,"NORAD_CAT_ID":66715,"ELEMENT_SET_NO":999,"REV_AT_EPOCH":3438,"BSTAR":0.00021277,"MEAN_MOTION_DOT":0.00004619,"MEAN_MOTION_DDOT":0},{"OBJECT_NAME":"FLOCK 4H-13","OBJECT_ID":"2025-276BC","EPOCH":"2026-07-11T04:20:20.257728","CLASSIFICATION_TYPE":"U","MEAN_MOTION":15.20881427,"ECCENTRICITY":0.0001624,"INCLINATION":97.422,"RA_OF_ASC_NODE":265.6625,"ARG_OF_PERICENTER":147.1061,"MEAN_ANOMALY":213.0276,"EPHEMERIS_TYPE":0,"NORAD_CAT_ID":66716,"ELEMENT_SET_NO":999,"REV_AT_EPOCH":3408,"BSTAR":0.00016866,"MEAN_MOTION_DOT":0.00003658,"MEAN_MOTION_DDOT":0},{"OBJECT_NAME":"FLOCK 4H-14","OBJECT_ID":"2025-276BD","EPOCH":"2026-07-11T03:25:05.824128","CLASSIFICATION_TYPE":"U","MEAN_MOTION":15.2133207,"ECCENTRICITY":0.0001567,"INCLINATION":97.4202,"RA_OF_ASC_NODE":265.6696,"ARG_OF_PERICENTER":143.5144,"MEAN_ANOMALY":216.6199,"EPHEMERIS_TYPE":0,"NORAD_CAT_ID":66717,"ELEMENT_SET_NO":999,"REV_AT_EPOCH":3333,"BSTAR":0.00018683,"MEAN_MOTION_DOT":0.00004114,"MEAN_MOTION_DDOT":0}]}
