FLOCK 4G-17             
1 62681U 25009CA  26191.02703166  .00007639  00000+0  26551-3 0  9999
2 62681  97.3921 272.2791 0003590 236.2552 123.8346 15.30011854140042
FLOCK 4G-33             
1 62685U 25009CE  26189.76183029  .00004325  00000+0  17230-3 0  9994
2 62685  97.3940 269.3877 0004132 242.8969 117.1848 15.25750709 82093
FLOCK 4H-1              
1 66704U 25276AQ  26192.00085742  .00003938  00000+0  18164-3 0  9996
2 66704  97.4173 265.3124 0001616 186.3385 173.7830 15.20819395 34051
FLOCK 4H-2              
1 66705U 25276AR  26192.17265397  .00003923  00000+0  17958-3 0  9995
2 66705  97.4170 265.5286 0001143 158.7856 201.3428 15.21090629 34087
FLOCK 4H-3              
1 66706U 25276AS  26192.16036059  .00003974  00000+0  18654-3 0  9996
2 66706  97.4240 265.4428 0002339 272.4577  87.6390 15.20211864 34061
FLOCK 4H-4              
1 66707U 25276AT  26191.14257329  .00005308  00000+0  24963-3 0  9992
2 66707  97.4219 264.3108 0003034 281.5816  78.5078 15.19995967 33906
FLOCK 4H-5              
1 66708U 25276AU  26191.99326399  .00003453  00000+0  15943-3 0  9997
2 66708  97.4174 265.3259 0001043 130.5806 229.5521 15.20871863 34053
FLOCK 4H-6              
1 66709U 25276AV  26191.51195368  .00003951  00000+0  18358-3 0  9992
2 66709  97.4223 264.8943 0001994 227.6526 132.4541 15.20567793 33973
FLOCK 4H-7              
1 66710U 25276AW  26192.15121433  .00004431  00000+0  20682-3 0  9994
2 66710  97.4182 265.2847 0000895 339.7678  20.3521 15.20346675 34067
FLOCK 4H-8              
1 66711U 25276AX  26192.14239374  .00004343  00000+0  20215-3 0  9992
2 66711  97.4222 265.4230 0001901 296.4674  63.6366 15.20455160 34062
FLOCK 4H-9              
1 66712U 25276AY  26192.15699645  .00004252  00000+0  19628-3 0  9990
2 66712  97.4212 265.5308 0002068 233.3101 126.7945 15.20753068 34072
FLOCK 4H-10             
1 66713U 25276AZ  26189.74471355  .00005144  00000+0  24119-3 0  9990
2 66713  97.4183 262.8729 0002903 290.7514  69.3410 15.20108727 33692
FLOCK 4H-11             
1 66714U 25276BA  26192.14797113  .00008730  00000+0  37123-3 0  9995
2 66714  97.4195 265.8104 0001297 271.8491  88.2597 15.23260238 34095
FLOCK 4H-12             
1 66715U 25276BB  26192.14412013  .00004619  00000+0  21277-3 0  9994
2 66715  97.4188 265.4551 0001457 191.7622 168.3580 15.20782568 34380
FLOCK 4H-13             
1 66716U 25276BC  26192.18079002  .00003658  00000+0  16866-3 0  9996
2 66716  97.4220 265.6625 0001624 147.1061 213.0276 15.20881427 34081
FLOCK 4H-14             
1 66717U 25276BD  26192.14242852  .00004114  00000+0  18683-3 0  9995
2 66717  97.4202 265.6696 0001567 143.5144 216.6199 15.21332070 33334
